IRIDIUM 63              
1 25286U 98021B   25324.20080530  .00000477  00000+0  15513-3 0  9992
2 25286  86.4009  16.6707 0002393  97.6927 262.4542 14.36711143446242
IRIDIUM 69              
1 25319U 98026A   25324.21933846  .00000660  00000+0  19865-3 0  9990
2 25319  86.4002  29.4566 0001814 168.0449 192.0794 14.41182304445531
IRIDIUM 71              
1 25320U 98026B   25324.20781147  .00000367  00000+0  10736-3 0  9998
2 25320  86.4003  24.1365 0000708  21.2386 338.8843 14.41298996446063
IRIDIUM 73              
1 25344U 98032C   25324.10535762  .00000672  00000+0  16145-3 0  9999
2 25344  86.4409 340.6109 0002352 108.7726 251.3735 14.51946426453186
IRIDIUM 82              
1 25467U 98051A   25324.17898966  .00037508  00000+0  74456-3 0  9998
2 25467  86.3642  32.4415 0066947  61.7040 299.0949 15.44356051447915
